STARLINK-31592          
1 59467U 24068N   26068.25794513 -.00001348  00000+0 -39479-4 0  9992
2 59467  43.0027  37.2216 0001182 275.3855  84.6862 15.27575645108456
TEVEL2-1                
1 63217U 25052H   26068.64782323  .00020683  00000+0  70600-3 0  9994
2 63217  97.3991 324.7682 0004767 104.8919 255.2849 15.30341923 54855
